<?xml version="1.0" encoding="UTF-8" standalone="yes"?>
<ndm>
    <oem id="CCSDS_OEM_VERS" version="2.0">
        <header>
            <CREATION_DATE>2021-358T22:49:52.627Z</CREATION_DATE>
            <ORIGINATOR>JSC</ORIGINATOR>
        </header>
        <body>
            <segment>
                <metadata>
                    <OBJECT_NAME>ISS</OBJECT_NAME>
                    <OBJECT_ID>1998-067-A</OBJECT_ID>
                    <CENTER_NAME>EARTH</CENTER_NAME>
                    <REF_FRAME>EME2000</REF_FRAME>
                    <TIME_SYSTEM>UTC</TIME_SYSTEM>
                    <START_TIME>2021-358T10:58:56.651Z</START_TIME>
                    <STOP_TIME>2022-008T10:58:56.651Z</STOP_TIME>
                </metadata>
                <data>
                    <COMMENT>Units are in kg and m^2</COMMENT>
                    <COMMENT>MASS=459023.00</COMMENT>
                    <COMMENT>DRAG_AREA=1437.60</COMMENT>
                    <COMMENT>DRAG_COEFF=4.90</COMMENT>
                    <COMMENT>SOLAR_RAD_AREA=0.00</COMMENT>
                    <COMMENT>SOLAR_RAD_COEFF=0.00</COMMENT>
                    <COMMENT>Orbits start at the ascending node epoch </COMMENT>
                    <COMMENT>ISS first asc. node: EPOCH = 2021-12-24T11:55:58.210 $ ORBIT = 3808 $ LAN(DEG) = -150.54772</COMMENT>
                    <COMMENT>ISS last asc. node : EPOCH = 2022-01-08T10:56:19.501 $ ORBIT = 4040 $ LAN(DEG) = 135.52807</COMMENT>
                    <COMMENT>Begin sequence of events</COMMENT>
                    <COMMENT>TRAJECTORY EVENT SUMMARY:</COMMENT>
                    <COMMENT></COMMENT>
                    <COMMENT>|       EVENT        |       TIG        | ORB |   DV    |   HA    |   HP    |</COMMENT>
                    <COMMENT>|                    |       GMT        |     |   M/S   |   KM    |   KM    |</COMMENT>
                    <COMMENT>|                    |                  |     |  (F/S)  |  (NM)   |  (NM)   |</COMMENT>
                    <COMMENT>=============================================================================</COMMENT>
                    <COMMENT>=============================================================================</COMMENT>
                    <COMMENT>End sequence of events</COMMENT>
                    <stateVector>
                        <EPOCH>2021-359T03:46:56.651Z</EPOCH>
                        <X units="km">-3872.8878882567501</X>
                        <Y units="km">-1663.5808577283501</Y>
                        <Z units="km">5323.96652761114</Z>
                        <X_DOT units="km/s">3.3817216622388702</X_DOT>
                        <Y_DOT units="km/s">-6.8672561567900399</Y_DOT>
                        <Z_DOT units="km/s">0.31730529842194</Z_DOT>
                    </stateVector>
                    <stateVector>
                        <EPOCH>2021-359T03:50:56.651Z</EPOCH>
                        <X units="km">-2930.4342544086398</X>
                        <Y units="km">-3231.2780051022501</Y>
                        <Z units="km">5205.2358947852999</Z>
                        <X_DOT units="km/s">4.4241224878566099</X_DOT>
                        <Y_DOT units="km/s">-6.1172370340338702</Y_DOT>
                        <Z_DOT units="km/s">-1.30062051125974</Z_DOT>
                    </stateVector>
                    <stateVector>
                        <EPOCH>2021-359T03:54:56.651Z</EPOCH>
                        <X units="km">-1775.08594607448</X>
                        <Y units="km">-4564.2161752779402</Y>
                        <Z units="km">4707.2699516459497</Z>
                        <X_DOT units="km/s">5.1450840498647796</X_DOT>
                        <Y_DOT units="km/s">-4.9228083088980199</Y_DOT>
                        <Z_DOT units="km/s">-2.8237548183690002</Z_DOT>
                    </stateVector>
                    <stateVector>
                        <EPOCH>2021-359T03:58:56.651Z</EPOCH>
                        <X units="km">-490.76022597830399</X>
                        <Y units="km">-5565.5098112440501</Y>
                        <Z units="km">3866.2997201706899</Z>
                        <X_DOT units="km/s">5.4923671326350396</X_DOT>
                        <Y_DOT units="km/s">-3.3702977663756499</Y_DOT>
                        <Z_DOT units="km/s">-4.1415458257106499</Z_DOT>
                    </stateVector>
                    <stateVector>
                        <EPOCH>2021-359T04:02:56.651Z</EPOCH>
                        <X units="km">829.24058560868002</X>
                        <Y units="km">-6162.25464817598</Y>
                        <Z units="km">2743.49781444682</Z>
                        <X_DOT units="km/s">5.4405001287730999</X_DOT>
                        <Y_DOT units="km/s">-1.5721017246698901</Y_DOT>
                        <Z_DOT units="km/s">-5.1579407395669401</Z_DOT>
                    </stateVector>
                    <stateVector>
                        <EPOCH>2021-359T04:06:56.651Z</EPOCH>
                        <X units="km">2088.9453202016798</X>
                        <Y units="km">-6310.9052108790602</Y>
                        <Z units="km">1420.6304580620799</Z>
                        <X_DOT units="km/s">4.9929351979829502</X_DOT>
                        <Y_DOT units="km/s">0.34096421787747</Y_DOT>
                        <Z_DOT units="km/s">-5.7984802465654299</Z_DOT>
                    </stateVector>
                    <stateVector>
                        <EPOCH>2021-359T04:10:56.651Z</EPOCH>
                        <X units="km">3196.7285124689802</X>
                        <Y units="km">-6000.5819187419702</Y>
                        <Z units="km">-5.8570533120166601</Z>
                        <X_DOT units="km/s">4.1822629701013501</X_DOT>
                        <Y_DOT units="km/s">2.22920837645768</Y_DOT>
                        <Z_DOT units="km/s">-6.0161270187721403</Z_DOT>
                    </stateVector>
                    <stateVector>
                        <EPOCH>2021-359T04:14:56.651Z</EPOCH>
                        <X units="km">4072.0780083448599</X>
                        <Y units="km">-5253.9452724438097</Y>
                        <Z units="km">-1431.9288380302701</Z>
                        <X_DOT units="km/s">3.0679239012839599</X_DOT>
                        <Y_DOT units="km/s">3.9546091461063102</Y_DOT>
                        <Z_DOT units="km/s">-5.7950964374069098</Z_DOT>
                    </stateVector>
                    <stateVector>
                        <EPOCH>2021-359T04:18:56.651Z</EPOCH>
                        <X units="km">4651.5363610824397</X>
                        <Y units="km">-4125.5194823313605</Y>
                        <Z units="km">-2753.6643847595301</Z>
                        <X_DOT units="km/s">1.73167232558858</X_DOT>
                        <Y_DOT units="km/s">5.3913711292259903</Y_DOT>
                        <Z_DOT units="km/s">-5.1521186924085098</Z_DOT>
                    </stateVector>
                    <stateVector>
                        <EPOCH>2021-359T04:22:56.651Z</EPOCH>
                        <X units="km">4893.31726842235</X>
                        <Y units="km">-2697.5783155981799</Y>
                        <Z units="km">-3874.9339938276798</Z>
                        <X_DOT units="km/s">0.27115657889491002</X_DOT>
                        <Y_DOT units="km/s">6.4354749655635404</Y_DOT>
                        <Z_DOT units="km/s">-4.1348986505324303</Z_DOT>
                    </stateVector>
                    <stateVector>
                        <EPOCH>2021-359T04:26:56.651Z</EPOCH>
                        <X units="km">4780.2329210091902</X>
                        <Y units="km">-1073.98677439887</Y>
                        <Z units="km">-4714.3926404305303</Z>
                        <X_DOT units="km/s">-1.20756802248456</X_DOT>
                        <Y_DOT units="km/s">7.0120365511871796</Y_DOT>
                        <Z_DOT units="km/s">-2.8181012917670198</Z_DOT>
                    </stateVector>
                    <stateVector>
                        <EPOCH>2021-359T04:30:56.651Z</EPOCH>
                        <X units="km">4320.7846069936504</X>
                        <Y units="km">627.43494209929599</Y>
                        <Z units="km">-5211.2822890571497</Z>
                        <X_DOT units="km/s">-2.5977790032572301</X_DOT>
                        <Y_DOT units="km/s">7.0802628694600998</Y_DOT>
                        <Z_DOT units="km/s">-1.29751736355512</Z_DOT>
                    </stateVector>
                    <stateVector>
                        <EPOCH>2021-359T04:34:56.651Z</EPOCH>
                        <X units="km">3548.40562498503</X>
                        <Y units="km">2283.41808220546</Y>
                        <Z units="km">-5329.6667227834696</Z>
                        <X_DOT units="km/s">-3.79960869422702</X_DOT>
                        <Y_DOT units="km/s">6.63569231190524</Y_DOT>
                        <Z_DOT units="km/s">0.31702692926600001</Z_DOT>
                    </stateVector>
                    <stateVector>
                        <EPOCH>2021-359T04:38:56.651Z</EPOCH>
                        <X units="km">2519.0068991264102</X>
                        <Y units="km">3773.9960287412</Y>
                        <Z units="km">-5060.9004270467904</Z>
                        <X_DOT units="km/s">-4.7266531121022801</X_DOT>
                        <Y_DOT units="km/s">5.7101271602781898</Y_DOT>
                        <Z_DOT units="km/s">1.90922532026279</Z_DOT>
                    </stateVector>
                    
                </data>
            </segment>
        </body>
    </oem>
</ndm>
